CSS (TIANHE)            
1 48274U 21035A   23346.10980424  .00011282  00000+0  12190-3 0  9991
2 48274  41.4685 152.2336 0007367 319.3275  40.7014 15.63480535149651
